{
  "norad_id": 67345,
  "name": "STARLINK-35676",
  "history": [
    {
      "epoch": "2026-03-28T08:58:40.805760Z",
      "apogee_km": 484.1129591553463,
      "perigee_km": 481.95031880034,
      "latitude_deg": 6.635159157775022e-05,
      "longitude_deg": 160.8846976102038,
      "height_km": 482.8119495738627,
      "semi_major_axis_km": 6861.168638977842,
      "eccentricity": 0.0001576,
      "inclination_deg": 43.0019,
      "raan_deg": 121.3501,
      "arg_perigee_deg": 269.8272,
      "mean_anomaly_deg": 90.24,
      "mean_motion_rev_day": 15.2758583
    }
  ]
}